EUTELSAT QUANTUM        
1 49056U 21069B   26011.17402861  .00000141  00000+0  00000+0 0  9995
2 49056   0.0153  44.0717 0003388 252.7235 284.2247  1.00272273 16354
EUTELSAT KONNECT VHTS   
1 53765U 22110A   26011.16510189  .00000033  00000+0  00000+0 0  9997
2 53765   0.0557  97.8353 0002711 175.4737 259.5387  1.00275882  5260
EUTELSAT HOTBIRD 13F    
1 54048U 22134A   26011.16718190  .00000101  00000+0  00000+0 0  9996
2 54048   0.0574 285.4978 0002116  81.8286 176.5115  1.00268899 11804
EUTELSAT HOTBIRD 13G    
1 54225U 22146A   26011.16718190  .00000102  00000+0  00000+0 0  9997
2 54225   0.0523 227.0949 0001850 311.7463   5.0068  1.00272867  5896
EUTELSAT 10B            
1 54259U 22157A   26011.16657523  .00000082  00000+0  00000+0 0  9995
2 54259   0.0583  95.3179 0000594  16.7296  68.5409  1.00270222 11455
EUTELSAT 36D            
1 59346U 24059A   26011.24301572  .00000000  00000+0  00000+0 0  9999
2 59346   0.0239  49.7883 0000291 341.2815 203.0034  1.00269595  6575
